Example222.74  0.15 J974M 315.37736  264.46550   32.99275    0.84914  0.3746320  0.73960255   1.2109804    FO 250221     8   1 18.2 hrs  0.33         Find_Orb   0000 Example2                    19970422
